SWARM A                 
1 39452U 13067B   26201.82900744  .00006641  00000+0  11161-3 0  9994
2 39452  87.3302  43.7296 0003330  91.3308 268.8334 15.51525725711463
SWARM C                 
1 39453U 13067C   26201.82891641  .00007211  00000+0  12125-3 0  9995
2 39453  87.3302  42.3103 0003309  91.5123 268.6517 15.51526302711428
BRITE-CA1 (TORONTO)     
1 40020U 14033L   26201.87376748  .00000695  00000+0  11163-3 0  9992
2 40020  97.9778 330.1884 0078905 168.1114 192.1980 14.72730089647179
OCO 2                   
1 40059U 14035A   26201.80327035  .00000195  00000+0  53241-4 0  9993
2 40059  98.2020 142.5861 0001406  80.6461 279.4896 14.57134777640948
BRITE-PL2 (HEWELIUSZ)   
1 40119U 14049B   26201.84642044  .00001155  00000+0  11183-3 0  9994
2 40119  97.9121 314.1126 0013782   3.8262 356.3061 14.94696779646479
MMS 1                   
1 40482U 15011A   26201.91668980 -.00001324  00000+0  00000+0 0  9993
2 40482  72.5166 348.3984 8301492 168.1445 139.2705  0.28345867  1373
MMS 2                   
1 40483U 15011B   26201.91668980 -.00001324  00000+0  00000+0 0  9994
2 40483  72.5206 348.3974 8304308 168.1472 139.2569  0.28345820  1374
MMS 3                   
1 40484U 15011C   26201.91668980 -.00001323  00000+0  00000+0 0  9994
2 40484  72.5203 348.4093 8302675 168.1549 139.2310  0.28345816  1341
MMS 4                   
1 40485U 15011D   26201.91668980 -.00001324  00000+0  00000+0 0  9996
2 40485  72.5158 348.3928 8302629 168.1648 139.2270  0.28345868  1371
ASTROSAT                
1 40930U 15052A   26201.72760010  .00001134  00000+0  56353-4 0  9997
2 40930   5.9967 273.9311 0007722 157.6768 202.3696 14.82557105584810
DAMPE                   
1 41173U 15078A   26201.89735528  .00000456  00000+0  17891-4 0  9999
2 41173  97.4571 207.5331 0010961 324.4068  35.6441 15.30860837589709
PISAT                   
1 41784U 16059B   26201.72437257  .00000512  00000+0  94616-4 0  9990
2 41784  97.8194 200.7389 0030565  97.9776 262.4900 14.69035479524661
HXMT (HUIYAN)           
1 42758U 17034A   26201.74457101  .00002637  00000+0  13479-3 0  9995
2 42758  43.0152 356.1492 0031551 355.7121   4.3454 15.18716792502769
FLYING LAPTOP           
1 42831U 17042G   26201.84527920  .00002031  00000+0  16162-3 0  9994
2 42831  97.4839 356.1180 0019373  14.5812 345.5968 15.01335202491509
ZHANGHENG 1-01 (CSES-1) 
1 43194U 18015C   26201.89195094  .00004768  00000+0  21977-3 0  9995
2 43194  97.6903   8.2242 0016830 145.9676 214.2642 15.20653657469764
SALSAT                  
1 46495U 20068K   26200.97640307  .00004107  00000+0  14329-3 0  9993
2 46495  97.8865 206.0496 0009725 176.0322 184.0997 15.30211220320374
IXPE                    
1 49954U 21121A   26201.83335647  .00006837  00000+0  34833-3 0  9995
2 49954   0.2301  62.5879 0006867 227.4235 304.6409 15.10518481  5823
SMILE                   
1 69123U 26109A   26194.95939329  .00000936  00000+0  00000+0 0  9996
2 69123  70.0512 206.6048 8313707 286.9544   0.1879  0.47500629    65
