OBJECT_NAME,OBJECT_ID,EPOCH,MEAN_MOTION,ECCENTRICITY,INCLINATION,RA_OF_ASC_NODE,ARG_OF_PERICENTER,MEAN_ANOMALY,EPHEMERIS_TYPE,CLASSIFICATION_TYPE,NORAD_CAT_ID,ELEMENT_SET_NO,REV_AT_EPOCH,BSTAR,MEAN_MOTION_DOT,MEAN_MOTION_DDOT
SWARM A,2013-067B,2026-07-20T19:53:46.242816,15.51525725,.000333,87.3302,43.7296,91.3308,268.8334,0,U,39452,999,71146,.11161E-3,.6641E-4,0
SWARM C,2013-067C,2026-07-20T19:53:38.377824,15.51526302,.0003309,87.3302,42.3103,91.5123,268.6517,0,U,39453,999,71142,.12125E-3,.7211E-4,0
BRITE-CA1 (TORONTO),2014-033L,2026-07-20T20:58:13.510272,14.72730089,.0078905,97.9778,330.1884,168.1114,192.1980,0,U,40020,999,64717,.11163E-3,.695E-5,0
OCO 2,2014-035A,2026-07-20T19:16:42.558240,14.57134777,.0001406,98.2020,142.5861,80.6461,279.4896,0,U,40059,999,64094,.53241E-4,.195E-5,0
BRITE-PL2 (HEWELIUSZ),2014-049B,2026-07-20T20:18:50.726016,14.94696779,.0013782,97.9121,314.1126,3.8262,356.3061,0,U,40119,999,64647,.11183E-3,.1155E-4,0
MMS 1,2015-011A,2026-07-20T22:00:01.998720,0.28345867,.8301492,72.5166,348.3984,168.1445,139.2705,0,U,40482,999,137,0,-.1324E-4,0
MMS 2,2015-011B,2026-07-20T22:00:01.998720,0.28345820,.8304308,72.5206,348.3974,168.1472,139.2569,0,U,40483,999,137,0,-.1324E-4,0
MMS 3,2015-011C,2026-07-20T22:00:01.998720,0.28345816,.8302675,72.5203,348.4093,168.1549,139.2310,0,U,40484,999,134,0,-.1323E-4,0
MMS 4,2015-011D,2026-07-20T22:00:01.998720,0.28345868,.8302629,72.5158,348.3928,168.1648,139.2270,0,U,40485,999,137,0,-.1324E-4,0
ASTROSAT,2015-052A,2026-07-20T17:27:44.648640,14.82557105,.0007722,5.9967,273.9311,157.6768,202.3696,0,U,40930,999,58481,.56353E-4,.1134E-4,0
DAMPE,2015-078A,2026-07-20T21:32:11.496192,15.30860837,.0010961,97.4571,207.5331,324.4068,35.6441,0,U,41173,999,58970,.17891E-4,.456E-5,0
PISAT,2016-059B,2026-07-20T17:23:05.790048,14.69035479,.0030565,97.8194,200.7389,97.9776,262.4900,0,U,41784,999,52466,.94616E-4,.512E-5,0
HXMT (HUIYAN),2017-034A,2026-07-20T17:52:10.935264,15.18716792,.0031551,43.0152,356.1492,355.7121,4.3454,0,U,42758,999,50276,.13479E-3,.2637E-4,0
FLYING LAPTOP,2017-042G,2026-07-20T20:17:12.122880,15.01335202,.0019373,97.4839,356.1180,14.5812,345.5968,0,U,42831,999,49150,.16162E-3,.2031E-4,0
ZHANGHENG 1-01 (CSES-1),2018-015C,2026-07-20T21:24:24.561216,15.20653657,.001683,97.6903,8.2242,145.9676,214.2642,0,U,43194,999,46976,.21977E-3,.4768E-4,0
SALSAT,2020-068K,2026-07-19T23:26:01.225248,15.30211220,.00097251,97.8865,206.0496,176.0322,184.0997,0,U,46495,999,32037,.14328943E-3,.4107E-4,0
IXPE,2021-121A,2026-07-20T20:00:01.999008,15.10518481,.0006867,0.2301,62.5879,227.4235,304.6409,0,U,49954,999,582,.34833E-3,.6837E-4,0
SMILE,2026-109A,2026-07-13T23:01:31.580256,0.47500629,.83137076,70.0512,206.6048,286.9544,0.1879,0,U,69123,999,6,0,.936E-5,0
